{"type": "FeatureCollection", "name": "restricted", "description": "観測地点として使えない場所（皇居）。© OpenStreetMap contributors (ODbL)", "features": [{"type": "Feature", "properties": {"name": "皇居", "osm": "way/534754971"}, "geometry": {"type": "Polygon", "coordinates": [[[139.7526503, 35.6888375], [139.7526196, 35.6888806], [139.7525783, 35.6889364], [139.7525179, 35.6890253], [139.7524312, 35.6891226], [139.7523119, 35.6892566], [139.7521531, 35.6894597], [139.7518791, 35.6893803], [139.751404, 35.6892465], [139.7513505, 35.6893382], [139.7494365, 35.6884519], [139.7492449, 35.6883823], [139.7490149, 35.6882939], [139.7487341, 35.6882028], [139.7483425, 35.6881051], [139.748116, 35.68807], [139.7478154, 35.6880245], [139.7469271, 35.6879333], [139.7465433, 35.68792], [139.7463955, 35.6879174], [139.7460926, 35.687829], [139.7460709, 35.687566], [139.7460738, 35.6873243], [139.7461706, 35.68701], [139.7461925, 35.6869116], [139.746181, 35.6866598], [139.7461499, 35.6864965], [139.7458618, 35.6858248], [139.7457699, 35.6857398], [139.7457539, 35.6857174], [139.74574, 35.6856707], [139.7455759, 35.6851208], [139.7455332, 35.68498], [139.7454703, 35.6848989], [139.7454199, 35.6848379], [139.7454132, 35.6848103], [139.7453909, 35.6845845], [139.7453533, 35.6842592], [139.7453744, 35.6842497], [139.7455022, 35.6842146], [139.7454728, 35.6839955], [139.7456097, 35.6838972], [139.7456091, 35.6838007], [139.7456091, 35.683759], [139.7456091, 35.6837272], [139.7456091, 35.6837173], [139.7456053, 35.6836111], [139.7452345, 35.6834245], [139.7452788, 35.683037], [139.7452904, 35.6829839], [139.7453031, 35.6829601], [139.7453231, 35.682929], [139.7453548, 35.6829003], [139.7454254, 35.682867], [139.745675, 35.6827706], [139.7458956, 35.6827029], [139.7459596, 35.6826886], [139.7459993, 35.682674], [139.7460201, 35.6826551], [139.7460441, 35.6826276], [139.7460634, 35.6825989], [139.7460684, 35.6825694], [139.7460758, 35.6823623], [139.7460817, 35.682321], [139.7460933, 35.68229], [139.7461179, 35.6822355], [139.7461602, 35.6821735], [139.7462935, 35.682036], [139.7463251, 35.6820056], [139.7463979, 35.6818912], [139.7464418, 35.6818145], [139.7464932, 35.6817235], [139.7465821, 35.6815361], [139.7466928, 35.6811969], [139.7467721, 35.680951], [139.7468172, 35.6808124], [139.7468383, 35.6807566], [139.7468576, 35.6807286], [139.7468823, 35.6807088], [139.7469222, 35.6806931], [139.7470135, 35.68068], [139.7472675, 35.6806795], [139.7474914, 35.6806892], [139.7476452, 35.6806962], [139.7478341, 35.6807006], [139.7478861, 35.6806937], [139.74793, 35.6806766], [139.7479688, 35.6806484], [139.748003, 35.6806038], [139.7480316, 35.6805492], [139.7480806, 35.6803728], [139.7481244, 35.6802143], [139.7481491, 35.6801344], [139.7481637, 35.6800976], [139.748182, 35.6800689], [139.7482297, 35.6800236], [139.7486614, 35.679687], [139.7488601, 35.6795039], [139.748868, 35.6794903], [139.7488765, 35.6794353], [139.7488846, 35.6794141], [139.7489031, 35.6793869], [139.7490964, 35.6792325], [139.7492096, 35.6791424], [139.7494652, 35.6789554], [139.7497768, 35.6786893], [139.7498055, 35.6786473], [139.7498304, 35.6785604], [139.7498388, 35.6785349], [139.7498572, 35.6785192], [139.7499588, 35.6784701], [139.7500893, 35.6784193], [139.7505505, 35.678309], [139.7507132, 35.6782677], [139.7507802, 35.6782559], [139.7508674, 35.6782517], [139.7509861, 35.6782515], [139.7510136, 35.6782544], [139.7510454, 35.6782618], [139.7510578, 35.6782699], [139.7511388, 35.6785491], [139.7511464, 35.6785562], [139.7511584, 35.6785622], [139.7512637, 35.6785486], [139.7512737, 35.6785448], [139.7513114, 35.6783813], [139.7513196, 35.678377], [139.7516802, 35.6783988], [139.751854, 35.6784248], [139.752125, 35.6784926], [139.752641, 35.6786476], [139.752801, 35.6787], [139.7528539, 35.6787185], [139.7534758, 35.6791531], [139.7539473, 35.678976], [139.7545465, 35.67876], [139.7550042, 35.6796576], [139.7547016, 35.6797589], [139.7547181, 35.6797913], [139.7546736, 35.6798069], [139.7545062, 35.6798626], [139.7544959, 35.6798381], [139.7539538, 35.6800146], [139.7540696, 35.6802735], [139.7541988, 35.6804436], [139.7543634, 35.6808768], [139.7545246, 35.6813138], [139.7546111, 35.6815214], [139.7547119, 35.6817583], [139.7548658, 35.6821121], [139.7549954, 35.6824137], [139.7551884, 35.6823755], [139.7551804, 35.6823417], [139.7558327, 35.682213], [139.7559682, 35.6826503], [139.7560284, 35.682639], [139.7560986, 35.6826328], [139.7563744, 35.6826085], [139.7563874, 35.6826526], [139.7563989, 35.6826797], [139.7564184, 35.682725], [139.7564234, 35.6827368], [139.7564297, 35.6827514], [139.7560805, 35.6828199], [139.7560945, 35.6828789], [139.7558717, 35.6829299], [139.7557403, 35.6829632], [139.7556528, 35.682994], [139.7556029, 35.6830209], [139.7555619, 35.6830468], [139.7555231, 35.6830754], [139.7554773, 35.6831182], [139.7554547, 35.683151], [139.7554312, 35.6831876], [139.7554118, 35.683224], [139.7553948, 35.683295], [139.7553911, 35.6833659], [139.7553928, 35.6834527], [139.7554045, 35.6835017], [139.755417, 35.6835295], [139.7554346, 35.6835622], [139.7554534, 35.6835969], [139.7554748, 35.6836338], [139.7555082, 35.6836753], [139.7555613, 35.6837179], [139.7558342, 35.6838926], [139.7555626, 35.6840282], [139.753236, 35.6869194], [139.7531286, 35.6870197], [139.752968, 35.6872428], [139.7530236, 35.6872725], [139.7527323, 35.6877805], [139.7527196, 35.6878259], [139.7527168, 35.6879617], [139.7527313, 35.6881667], [139.7527989, 35.6884344], [139.7528463, 35.6885445], [139.7529009, 35.6886369], [139.7529855, 35.6887473], [139.7529461, 35.6887951], [139.752808, 35.6888713], [139.7527195, 35.6888692], [139.7526503, 35.6888375]]]}}, {"type": "Feature", "properties": {"name": "皇居東御苑", "osm": "relation/5415394"}, "geometry": {"type": "Polygon", "coordinates": [[[139.7603836, 35.685827], [139.760731, 35.6857639], [139.7607268, 35.6857379], [139.760923, 35.6857064], [139.76093, 35.6857042], [139.7609877, 35.6856905], [139.7610036, 35.6857241], [139.7610211, 35.6857613], [139.7610555, 35.6858364], [139.7610242, 35.6858477], [139.7609977, 35.685853], [139.760772, 35.6858985], [139.7607667, 35.6858726], [139.7604516, 35.6859308], [139.7604617, 35.6859781], [139.7605231, 35.6859701], [139.7605534, 35.6860818], [139.7608713, 35.6872862], [139.7607922, 35.6873137], [139.7603075, 35.6888326], [139.7594402, 35.6889632], [139.7594656, 35.6896211], [139.7581825, 35.6895641], [139.7582238, 35.6899145], [139.7581019, 35.6899284], [139.757557, 35.6899949], [139.7575485, 35.6899702], [139.7575109, 35.6899748], [139.7574567, 35.6898042], [139.7575924, 35.689592], [139.7576934, 35.6891563], [139.7574274, 35.6891313], [139.7573899, 35.6892412], [139.7574992, 35.6892565], [139.7574676, 35.6893999], [139.7563871, 35.6892282], [139.7563223, 35.6895177], [139.7558631, 35.6894138], [139.7557825, 35.689539], [139.7552266, 35.6893549], [139.7551055, 35.6895057], [139.7544075, 35.6892145], [139.7544571, 35.6891393], [139.7541471, 35.6890051], [139.7538837, 35.6888878], [139.7537205, 35.68883], [139.7537966, 35.6886962], [139.7534917, 35.6885692], [139.753801, 35.6879338], [139.7533201, 35.6876644], [139.7535966, 35.6872798], [139.7535505, 35.6872593], [139.7535788, 35.6872157], [139.7536544, 35.6871102], [139.7536976, 35.6870568], [139.7537644, 35.6870927], [139.7543573, 35.6863443], [139.7542803, 35.6862988], [139.7548585, 35.685654], [139.7549263, 35.6856937], [139.7551897, 35.6853929], [139.7551241, 35.6853548], [139.7555564, 35.6848571], [139.7555432, 35.6848379], [139.7554515, 35.6847571], [139.7559892, 35.6842983], [139.7560028, 35.6842821], [139.7555443, 35.6840046], [139.755564, 35.6839838], [139.755822, 35.6838783], [139.7560955, 35.683651], [139.7559884, 35.6833238], [139.757159, 35.6830703], [139.7571321, 35.6830019], [139.757387, 35.6829492], [139.7576144, 35.6837024], [139.7577056, 35.6836909], [139.7578433, 35.6842562], [139.7582482, 35.6841699], [139.7582462, 35.6841636], [139.7582613, 35.6841595], [139.7582523, 35.6841376], [139.758247, 35.6841236], [139.7581725, 35.68396], [139.7582842, 35.6839281], [139.7582791, 35.6839162], [139.7582916, 35.6839122], [139.7583291, 35.6839018], [139.7583676, 35.6838907], [139.7583733, 35.6838896], [139.7583788, 35.6839036], [139.7584823, 35.6838748], [139.7584904, 35.6838953], [139.7592272, 35.6837267], [139.7594575, 35.6836718], [139.7595206, 35.683846], [139.7597118, 35.6843737], [139.7596206, 35.6843966], [139.7599103, 35.6851187], [139.7598193, 35.6851369], [139.7600221, 35.6857995], [139.7600277, 35.6858214], [139.7603659, 35.6857528], [139.7603836, 35.685827]]]}}]}